E-SPACE_L_00008006-153
1 81348U 26442PE  26070.40802083  .00000000  00000+0  00000-0 0  9991
2 81348  42.0000  50.0000 0000000   0.0000 152.5556 14.97863137    16
E-SPACE_L_00008006-154
1 81349U 25951BI  26070.40802083  .00000000  00000+0  00000-0 0  9996
2 81349  42.0000  50.0000 0000000   0.0000 153.5556 14.97863137    18
E-SPACE_L_00008006-155
1 81350U 26843RL  26070.40802083  .00000000  00000+0  00000-0 0  9999
2 81350  42.0000  50.0000 0000000   0.0000 154.5556 14.97863137    11
E-SPACE_L_00008006-156
1 81351U 26948SY  26070.40802083  .00000000  00000+0  00000-0 0  9996
2 81351  42.0000  50.0000 0000000   0.0000 155.5556 14.97863137    13
E-SPACE_L_00008006-157
1 81352U 23693KL  26070.40802083  .00000000  00000+0  00000-0 0  9991
2 81352  42.0000  50.0000 0000000   0.0000 156.5556 14.97863137    15
E-SPACE_L_00008006-158
1 81353U 22622NH  26070.40802083  .00000000  00000+0  00000-0 0  9993
2 81353  42.0000  50.0000 0000000   0.0000 157.5556 14.97863137    17
E-SPACE_L_00008006-159
1 81354U 22553GV  26070.40802083  .00000000  00000+0  00000-0 0  9997
2 81354  42.0000  50.0000 0000000   0.0000 158.5556 14.97863137    19
E-SPACE_L_00008006-160
1 81355U 23075KF  26070.40802083  .00000000  00000+0  00000-0 0  9998
2 81355  42.0000  50.0000 0000000   0.0000 159.5556 14.97863137    11
E-SPACE_L_00008006-161
1 81356U 22705OY  26070.40802083  .00000000  00000+0  00000-0 0  9998
2 81356  42.0000  50.0000 0000000   0.0000 160.5556 14.97863137    14
E-SPACE_L_00008006-162
1 81357U 26375QU  26070.40802083  .00000000  00000+0  00000-0 0  9996
2 81357  42.0000  50.0000 0000000   0.0000 161.5556 14.97863137    16
E-SPACE_L_00008006-163
1 81358U 24200TA  26070.40802083  .00000000  00000+0  00000-0 0  9992
2 81358  42.0000  50.0000 0000000   0.0000 162.5556 14.97863137    18
E-SPACE_L_00008006-164
1 81359U 23646TP  26070.40802083  .00000000  00000+0  00000-0 0  9996
2 81359  42.0000  50.0000 0000000   0.0000 163.5556 14.97863137    10
E-SPACE_L_00008006-165
1 81360U 25689KM  26070.40802083  .00000000  00000+0  00000-0 0  9997
2 81360  42.0000  50.0000 0000000   0.0000 164.5556 14.97863137    13
E-SPACE_L_00008006-166
1 81361U 25673KZ  26070.40802083  .00000000  00000+0  00000-0 0  9991
2 81361  42.0000  50.0000 0000000   0.0000 165.5556 14.97863137    15
E-SPACE_L_00008006-167
1 81362U 24257DI  26070.40802083  .00000000  00000+0  00000-0 0  9999
2 81362  42.0000  50.0000 0000000   0.0000 166.5556 14.97863137    17
E-SPACE_L_00008006-168
1 81363U 23093NN  26070.40802083  .00000000  00000+0  00000-0 0  9997
2 81363  42.0000  50.0000 0000000   0.0000 167.5556 14.97863137    19
E-SPACE_L_00008006-169
1 81364U 23341UA  26070.40802083  .00000000  00000+0  00000-0 0  9994
2 81364  42.0000  50.0000 0000000   0.0000 168.5556 14.97863137    11
E-SPACE_L_00008006-170
1 81365U 23113ZR  26070.40802083  .00000000  00000+0  00000-0 0  9992
2 81365  42.0000  50.0000 0000000   0.0000 169.5556 14.97863137    13
E-SPACE_L_00008006-171
1 81366U 22314GK  26070.40802083  .00000000  00000+0  00000-0 0  9995
2 81366  42.0000  50.0000 0000000   0.0000 170.5556 14.97863137    16
E-SPACE_L_00008006-172
1 81367U 22012LU  26070.40802083  .00000000  00000+0  00000-0 0  9991
2 81367  42.0000  50.0000 0000000   0.0000 171.5556 14.97863137    18
E-SPACE_L_00008006-173
1 81368U 24648ZQ  26070.40802083  .00000000  00000+0  00000-0 0  9999
2 81368  42.0000  50.0000 0000000   0.0000 172.5556 14.97863137    10
E-SPACE_L_00008006-174
1 81369U 23138HT  26070.40802083  .00000000  00000+0  00000-0 0  9993
2 81369  42.0000  50.0000 0000000   0.0000 173.5556 14.97863137    12
E-SPACE_L_00008006-175
1 81370U 23624BL  26070.40802083  .00000000  00000+0  00000-0 0  9995
2 81370  42.0000  50.0000 0000000   0.0000 174.5556 14.97863137    15
E-SPACE_L_00008006-176
1 81371U 23403ZU  26070.40802083  .00000000  00000+0  00000-0 0  9991
2 81371  42.0000  50.0000 0000000   0.0000 175.5556 14.97863137    17
E-SPACE_L_00008006-177
1 81372U 25113YE  26070.40802083  .00000000  00000+0  00000-0 0  9992
2 81372  42.0000  50.0000 0000000   0.0000 176.5556 14.97863137    19
E-SPACE_L_00008006-178
1 81373U 23673IO  26070.40802083  .00000000  00000+0  00000-0 0  9992
2 81373  42.0000  50.0000 0000000   0.0000 177.5556 14.97863137    11
E-SPACE_L_00008006-179
1 81374U 22162KC  26070.40802083  .00000000  00000+0  00000-0 0  9995
2 81374  42.0000  50.0000 0000000   0.0000 178.5556 14.97863137    13
E-SPACE_L_00008006-180
1 81375U 22140DN  26070.40802083  .00000000  00000+0  00000-0 0  9992
2 81375  42.0000  50.0000 0000000   0.0000 179.5556 14.97863137    15
E-SPACE_L_00008006-181
1 81376U 24240BR  26070.40802083  .00000000  00000+0  00000-0 0  9996
2 81376  42.0000  50.0000 0000000   0.0000 180.5556 14.97863137    18
E-SPACE_L_00008006-182
1 81377U 22978EL  26070.40802083  .00000000  00000+0  00000-0 0  9993
2 81377  42.0000  50.0000 0000000   0.0000 181.5556 14.97863137    10
E-SPACE_L_00008006-183
1 81378U 26420MH  26070.40802083  .00000000  00000+0  00000-0 0  9990
2 81378  42.0000  50.0000 0000000   0.0000 182.5556 14.97863137    12
E-SPACE_L_00008006-184
1 81379U 23935WX  26070.40802083  .00000000  00000+0  00000-0 0  9999
2 81379  42.0000  50.0000 0000000   0.0000 183.5556 14.97863137    14
E-SPACE_L_00008006-185
1 81380U 26125XJ  26070.40802083  .00000000  00000+0  00000-0 0  9995
2 81380  42.0000  50.0000 0000000   0.0000 184.5556 14.97863137    17
E-SPACE_L_00008006-186
1 81381U 24819VX  26070.40802083  .00000000  00000+0  00000-0 0  9994
2 81381  42.0000  50.0000 0000000   0.0000 185.5556 14.97863137    19
E-SPACE_L_00008006-187
1 81382U 23362HE  26070.40802083  .00000000  00000+0  00000-0 0  9997
2 81382  42.0000  50.0000 0000000   0.0000 186.5556 14.97863137    11
E-SPACE_L_00008006-188
1 81383U 22943FE  26070.40802083  .00000000  00000+0  00000-0 0  9992
2 81383  42.0000  50.0000 0000000   0.0000 187.5556 14.97863137    13
E-SPACE_L_00008006-189
1 81384U 24777KY  26070.40802083  .00000000  00000+0  00000-0 0  9990
2 81384  42.0000  50.0000 0000000   0.0000 188.5556 14.97863137    15
E-SPACE_L_00008006-190
1 81385U 22307CI  26070.40802083  .00000000  00000+0  00000-0 0  9998
2 81385  42.0000  50.0000 0000000   0.0000 189.5556 14.97863137    17
E-SPACE_L_00008006-191
1 81386U 23276VZ  26070.40802083  .00000000  00000+0  00000-0 0  9995
2 81386  42.0000  50.0000 0000000   0.0000 190.5556 14.97863137    10
E-SPACE_L_00008006-192
1 81387U 25411XV  26070.40802083  .00000000  00000+0  00000-0 0  9999
2 81387  42.0000  50.0000 0000000   0.0000 191.5556 14.97863137    12
E-SPACE_L_00008006-193
1 81388U 26013DS  26070.40802083  .00000000  00000+0  00000-0 0  9999
2 81388  42.0000  50.0000 0000000   0.0000 192.5556 14.97863137    14
E-SPACE_L_00008006-194
1 81389U 24742YG  26070.40802083  .00000000  00000+0  00000-0 0  9997
2 81389  42.0000  50.0000 0000000   0.0000 193.5556 14.97863137    16
E-SPACE_L_00008006-195
1 81390U 22337AQ  26070.40802083  .00000000  00000+0  00000-0 0  9997
2 81390  42.0000  50.0000 0000000   0.0000 194.5556 14.97863137    19
E-SPACE_L_00008006-196
1 81391U 24574FN  26070.40802083  .00000000  00000+0  00000-0 0  9993
2 81391  42.0000  50.0000 0000000   0.0000 195.5556 14.97863137    11
E-SPACE_L_00008006-197
1 81392U 26679BU  26070.40802083  .00000000  00000+0  00000-0 0  9992
2 81392  42.0000  50.0000 0000000   0.0000 196.5556 14.97863137    13
E-SPACE_L_00008006-198
1 81393U 22563GS  26070.40802083  .00000000  00000+0  00000-0 0  9991
2 81393  42.0000  50.0000 0000000   0.0000 197.5556 14.97863137    15
E-SPACE_L_00008006-199
1 81394U 26320CR  26070.40802083  .00000000  00000+0  00000-0 0  9997
2 81394  42.0000  50.0000 0000000   0.0000 198.5556 14.97863137    17
E-SPACE_L_00008006-200
1 81395U 26587DR  26070.40802083  .00000000  00000+0  00000-0 0  9993
2 81395  42.0000  50.0000 0000000   0.0000 199.5556 14.97863137    19
E-SPACE_L_00008006-201
1 81396U 25069UC  26070.40802083  .00000000  00000+0  00000-0 0  9998
2 81396  42.0000  50.0000 0000000   0.0000 200.5556 14.97863137    13
E-SPACE_L_00008006-202
1 81397U 23664UQ  26070.40802083  .00000000  00000+0  00000-0 0  9998
2 81397  42.0000  50.0000 0000000   0.0000 201.5556 14.97863137    15
E-SPACE_L_00008006-203
1 81398U 22989NO  26070.40802083  .00000000  00000+0  00000-0 0  9998
2 81398  42.0000  50.0000 0000000   0.0000 202.5556 14.97863137    17
E-SPACE_L_00008006-204
1 81399U 24963HM  26070.40802083  .00000000  00000+0  00000-0 0  9993
2 81399  42.0000  50.0000 0000000   0.0000 203.5556 14.97863137    19
E-SPACE_L_00008006-205
1 81400U 22561KC  26070.40802083  .00000000  00000+0  00000-0 0  9998
2 81400  42.0000  50.0000 0000000   0.0000 204.5556 14.97863137    13
E-SPACE_L_00008006-206
1 81401U 25547KX  26070.40802083  .00000000  00000+0  00000-0 0  9996
2 81401  42.0000  50.0000 0000000   0.0000 205.5556 14.97863137    15
E-SPACE_L_00008006-207
1 81402U 26050IU  26070.40802083  .00000000  00000+0  00000-0 0  9997
2 81402  42.0000  50.0000 0000000   0.0000 206.5556 14.97863137    17
E-SPACE_L_00008006-208
1 81403U 23018HM  26070.40802083  .00000000  00000+0  00000-0 0  9999
2 81403  42.0000  50.0000 0000000   0.0000 207.5556 14.97863137    19
E-SPACE_L_00008006-209
1 81404U 24505H   26070.40802083  .00000000  00000+0  00000-0 0  9992
2 81404  42.0000  50.0000 0000000   0.0000 208.5556 14.97863137    11
E-SPACE_L_00008006-210
1 81405U 22070CJ  26070.40802083  .00000000  00000+0  00000-0 0  9998
2 81405  42.0000  50.0000 0000000   0.0000 209.5556 14.97863137    13
E-SPACE_L_00008006-211
1 81406U 24855HT  26070.40802083  .00000000  00000+0  00000-0 0  9992
2 81406  42.0000  50.0000 0000000   0.0000 210.5556 14.97863137    16
E-SPACE_L_00008006-212
1 81407U 26599NZ  26070.40802083  .00000000  00000+0  00000-0 0  9990
2 81407  42.0000  50.0000 0000000   0.0000 211.5556 14.97863137    18
E-SPACE_L_00008006-213
1 81408U 25729OZ  26070.40802083  .00000000  00000+0  00000-0 0  9995
2 81408  42.0000  50.0000 0000000   0.0000 212.5556 14.97863137    10
